#dV2023  1  1 10  0  0.00000000    1682       CTS   FIT  GFZ
## 2243  36000.00000000    30.00000000 59945 0.4166666666667
+    1   L65  0  0  0  0  0  0  0  0  0  0  0  0  0  0  0  0
+          0  0  0  0  0  0  0  0  0  0  0  0  0  0  0  0  0
+          0  0  0  0  0  0  0  0  0  0  0  0  0  0  0  0  0
+          0  0  0  0  0  0  0  0  0  0  0  0  0  0  0  0  0
+          0  0  0  0  0  0  0  0  0  0  0  0  0  0  0  0  0
++         0  0  0  0  0  0  0  0  0  0  0  0  0  0  0  0  0
++         0  0  0  0  0  0  0  0  0  0  0  0  0  0  0  0  0
++         0  0  0  0  0  0  0  0  0  0  0  0  0  0  0  0  0
++         0  0  0  0  0  0  0  0  0  0  0  0  0  0  0  0  0
++         0  0  0  0  0  0  0  0  0  0  0  0  0  0  0  0  0
%c L  cc GPS ccc cccc cccc cccc cccc ccccc ccccc ccccc ccccc
%c cc cc ccc ccc cccc cccc cccc cccc ccccc ccccc ccccc ccccc
%f  0.0000000  0.000000000  0.00000000000  0.000000000000000
%f  0.0000000  0.000000000  0.00000000000  0.000000000000000
%i    0    0    0    0      0      0      0      0         0
%i    0    0    0    0      0      0      0      0         0
/* CCCCCCCCCCCCCCCCCCCCCCCCCCCCCCCCCCCCCCCCCCCCCCCCCCCCCCCCCCCCCCCCCCCCCCCCCCCCC
/* C                             GFZ RSO-ORBIT                                 C
/* C DOI: https://doi.org/10.5880/GFZ_ORBIT/RSO/L65_G_v02                      C
/* C                                                                           C
/* C DORIS        RMS: not applicable                                          C
/* C GNSS-E Code  RMS: not applicable                                          C
/* C GNSS-E Phase RMS: not applicable                                          C
/* C GNSS-G Code  RMS:  51.339 [cm]   Obs.acc.:     14583 Obs.eli.:      1236  C
/* C GNSS-G Phase RMS:   4.103 [mm]   Obs.acc.:     14583 Obs.eli.:      1236  C
/* C SLR          RMS:   3.061 [cm]   Obs.acc.:        74 Obs.eli.:         0  C
/* C                                                                           C
/* CCCCCCCCCCCCCCCCCCCCCCCCCCCCCCCCCCCCCCCCCCCCCCCCCCCCCCCCCCCCCCCCCCCCCCCCCCCCC
*  2023  1  1 13 24  0.00000000
PL65  -1839.152082  -4770.710486   4596.017523  15230.412830
VL65 -20116.733274 -46841.530533 -56506.965207 999999.999999
*  2023  1  1 13 24 30.00000000
PL65  -1898.785606  -4908.461126   4423.988352  15230.879278
VL65 -19633.948941 -44984.158755 -58168.608921 999999.999999
*  2023  1  1 13 25  0.00000000
PL65  -1956.925938  -5040.568101   4247.070023  15231.346781
VL65 -19121.328434 -43079.451760 -59766.102028 999999.999999
*  2023  1  1 13 25 30.00000000
PL65  -2013.484097  -5166.892714   4065.457670  15231.814749
VL65 -18579.229386 -41129.623838 -61297.667888 999999.999999
*  2023  1  1 13 26  0.00000000
PL65  -2068.372235  -5287.302986   3879.351650  15232.281972
VL65 -18008.052133 -39136.938749 -62761.601518 999999.999999
*  2023  1  1 13 26 30.00000000
PL65  -2121.503773  -5401.673799   3688.957326  15232.748606
VL65 -17408.239732 -37103.707107 -64156.272051 999999.999999
*  2023  1  1 13 27  0.00000000
PL65  -2172.793522  -5509.887035   3494.484839  15233.214971
VL65 -16780.277361 -35032.283016 -65480.124602 999999.999999
*  2023  1  1 13 27 30.00000000
PL65  -2222.157813  -5611.831698   3296.148877  15233.681178
VL65 -16124.691961 -32925.061642 -66731.681146 999999.999999
*  2023  1  1 13 28  0.00000000
PL65  -2269.514618  -5707.404040   3094.168449  15234.147174
VL65 -15442.052414 -30784.477475 -67909.542551 999999.999999
*  2023  1  1 13 28 30.00000000
PL65  -2314.783682  -5796.507670   2888.766637  15234.613176
VL65 -14732.969185 -28613.001422 -69012.391236 999999.999999
*  2023  1  1 13 29  0.00000000
PL65  -2357.886640  -5879.053660   2680.170352  15235.079263
VL65 -13998.093566 -26413.137516 -70038.992940 999999.999999
*  2023  1  1 13 29 30.00000000
PL65  -2398.747141  -5954.960641   2468.610079  15235.545417
VL65 -13238.116889 -24187.419805 -70988.198079 999999.999999
*  2023  1  1 13 30  0.00000000
PL65  -2437.290969  -6024.154886   2254.319627  15236.011561
VL65 -12453.769813 -21938.409490 -71858.942888 999999.999999
*  2023  1  1 13 30 30.00000000
PL65  -2473.446158  -6086.570390   2037.535862  15236.477684
VL65 -11645.821866 -19668.692321 -72650.250790 999999.999999
*  2023  1  1 13 31  0.00000000
PL65  -2507.143106  -6142.148939   1818.498449  15236.943814
VL65 -10815.080826 -17380.875538 -73361.234209 999999.999999
*  2023  1  1 13 31 30.00000000
PL65  -2538.314694  -6190.840168   1597.449581  15237.409910
VL65  -9962.391763 -15077.584326 -73991.096039 999999.999999
*  2023  1  1 13 32  0.00000000
PL65  -2566.896389  -6232.601610   1374.633704  15237.876017
VL65  -9088.635989 -12761.458266 -74539.130575 999999.999999
*  2023  1  1 13 32 30.00000000
PL65  -2592.826358  -6267.398733   1150.297242  15238.342069
VL65  -8194.730058 -10435.148099 -75004.724073 999999.999999
*  2023  1  1 13 33  0.00000000
PL65  -2616.045569  -6295.204973    924.688324  15238.808167
VL65  -7281.624762  -8101.312877 -75387.355499 999999.999999
*  2023  1  1 13 33 30.00000000
PL65  -2636.497890  -6316.001750    698.056501  15239.274282
VL65  -6350.303932  -5762.616832 -75686.597549 999999.999999
*  2023  1  1 13 34  0.00000000
PL65  -2654.130191  -6329.778479    470.652464  15239.740290
VL65  -5401.783187  -3421.725900 -75902.117290 999999.999999
*  2023  1  1 13 34 30.00000000
PL65  -2668.892435  -6336.532575    242.727761  15240.206258
VL65  -4437.108849  -1081.304437 -76033.676468 999999.999999
*  2023  1  1 13 35  0.00000000
PL65  -2680.737766  -6336.269435     14.534513  15240.672263
VL65  -3457.356843   1255.988027 -76081.131956 999999.999999
*  2023  1  1 13 35 30.00000000
PL65  -2689.622601  -6329.002427   -213.674876  15241.138239
VL65  -2463.631361   3587.500290 -76044.436050 999999.999999
*  2023  1  1 13 36  0.00000000
PL65  -2695.506711  -6314.752854   -441.647997  15241.604233
VL65  -1457.063392   5910.592888 -75923.636347 999999.999999
*  2023  1  1 13 36 30.00000000
PL65  -2698.353295  -6293.549915   -669.132730  15242.070320
VL65   -438.809335   8222.641246 -75718.875563 999999.999999
*  2023  1  1 13 37  0.00000000
PL65  -2698.129060  -6265.430658   -895.877524  15242.536392
VL65    589.950384  10521.038958 -75430.391362 999999.999999
*  2023  1  1 13 37 30.00000000
PL65  -2694.804289  -6230.439918  -1121.631683  15243.002481
VL65   1628.012707  12803.201023 -75058.515847 999999.999999
*  2023  1  1 13 38  0.00000000
PL65  -2688.352905  -6188.630249  -1346.145650  15243.468624
VL65   2674.153355  15066.566709 -74603.674973 999999.999999
*  2023  1  1 13 38 30.00000000
PL65  -2678.752534  -6140.061848  -1569.171284  15243.934813
VL65   3727.128407  17308.602395 -74066.388202 999999.999999
*  2023  1  1 13 39  0.00000000
PL65  -2665.984562  -6084.802469  -1790.462143  15244.400952
VL65   4785.675987  19526.804710 -73447.268095 999999.999999
*  2023  1  1 13 39 30.00000000
PL65  -2650.034183  -6022.927324  -2009.773761  15244.866873
VL65   5848.517956  21718.703799 -72747.019584 999999.999999
*  2023  1  1 13 40  0.00000000
PL65  -2630.890452  -5954.518984  -2226.863925  15245.332790
VL65   6914.361573  23881.866484 -71966.438961 999999.999999
*  2023  1  1 13 40 30.00000000
PL65  -2608.546317  -5879.667257  -2441.492947  15245.798796
VL65   7981.901222  26013.899328 -71106.412750 999999.999999
*  2023  1  1 13 41  0.00000000
PL65  -2582.998665  -5798.469070  -2653.423929  15246.264867
VL65   9049.820248  28112.451642 -70167.916281 999999.999999
*  2023  1  1 13 41 30.00000000
PL65  -2554.248342  -5711.028334  -2862.423034  15246.730924
VL65  10116.792715  30175.218172 -69152.012036 999999.999999
*  2023  1  1 13 42  0.00000000
PL65  -2522.300188  -5617.455806  -3068.259738  15247.196984
VL65  11181.484998  32199.941559 -68059.848095 999999.999999
*  2023  1  1 13 42 30.00000000
PL65  -2487.163052  -5517.868937  -3270.707092  15247.662959
VL65  12242.557395  34184.414943 -66892.656726 999999.999999
*  2023  1  1 13 43  0.00000000
PL65  -2448.849808  -5412.391722  -3469.541963  15248.129112
VL65  13298.665966  36126.484660 -65651.752539 999999.999999
*  2023  1  1 13 43 30.00000000
PL65  -2407.377366  -5301.154533  -3664.545286  15248.595420
VL65  14348.464335  38024.052294 -64338.530282 999999.999999
*  2023  1  1 13 44  0.00000000
PL65  -2362.766679  -5184.293953  -3855.502298  15249.061596
VL65  15390.605289  39875.076454 -62954.463135 999999.999999
*  2023  1  1 13 44 30.00000000
PL65  -2315.042739  -5061.952602  -4042.202768  15249.527826
VL65  16423.742411  41677.574938 -61501.101074 999999.999999
*  2023  1  1 13 45  0.00000000
PL65  -2264.234573  -4934.278952  -4224.441232  15249.993928
VL65  17446.531708  43429.626902 -59980.068970 999999.999999
*  2023  1  1 13 45 30.00000000
PL65  -2210.375236  -4801.427147  -4402.017207  15250.460003
VL65  18457.633287  45129.374931 -58393.064518 999999.999999
*  2023  1  1 13 46  0.00000000
PL65  -2153.501795  -4663.556801  -4574.735412  15250.926149
VL65  19455.713086  46775.026847 -56741.855931 999999.999999
*  2023  1  1 13 46 30.00000000
PL65  -2093.655306  -4520.832809  -4742.405973  15251.392257
VL65  20439.444480  48364.857147 -55028.279756 999999.999999
*  2023  1  1 13 47  0.00000000
PL65  -2030.880794  -4373.425139  -4904.844624  15251.858376
VL65  21407.509932  49897.208513 -53254.238934 999999.999999
*  2023  1  1 13 47 30.00000000
PL65  -1965.227220  -4221.508627  -5061.872907  15252.324451
VL65  22358.602656  51370.493453 -51421.700785 999999.999999
*  2023  1  1 13 48  0.00000000
PL65  -1896.747446  -4065.262764  -5213.318359  15252.790527
VL65  23291.428337  52783.195942 -49532.694805 999999.999999
*  2023  1  1 13 48 30.00000000
PL65  -1825.498198  -3904.871479  -5359.014695  15253.256685
VL65  24204.706901  54133.872915 -47589.310228 999999.999999
*  2023  1  1 13 49  0.00000000
PL65  -1751.540017  -3740.522923  -5498.801986  15253.722895
VL65  25097.174199  55421.155476 -45593.693457 999999.999999
EOF
